[{"OBJECT_NAME":"STARLINK-5831","OBJECT_ID":"2023-099E","EPOCH":"2026-03-09T21:19:52.169664","MEAN_MOTION":15.0252909,"ECCENTRICITY":0.00012993,"INCLINATION":43.0025,"RA_OF_ASC_NODE":248.1429,"ARG_OF_PERICENTER":271.6244,"MEAN_ANOMALY":88.4449,"EPHEMERIS_TYPE":0,"CLASSIFICATION_TYPE":"U","NORAD_CAT_ID":57332,"ELEMENT_SET_NO":999,"REV_AT_EPOCH":14614,"BSTAR":0.00013189352,"MEAN_MOTION_DOT":1.578e-5,"MEAN_MOTION_DDOT":0},{"OBJECT_NAME":"COSMOS 2251 DEB","OBJECT_ID":"1993-036AXJ","EPOCH":"2026-03-07T16:14:39.475392","MEAN_MOTION":15.02350149,"ECCENTRICITY":0.00052276,"INCLINATION":74.0329,"RA_OF_ASC_NODE":161.7612,"ARG_OF_PERICENTER":248.7206,"MEAN_ANOMALY":111.3424,"EPHEMERIS_TYPE":0,"CLASSIFICATION_TYPE":"U","NORAD_CAT_ID":36047,"ELEMENT_SET_NO":999,"REV_AT_EPOCH":67212,"BSTAR":0.0041103158,"MEAN_MOTION_DOT":0.00054783,"MEAN_MOTION_DDOT":0}]
